[{"OBJECT_NAME":"SHIJIAN-6 03B (SJ-6 03B)","OBJECT_ID":"2008-053B","EPOCH":"2026-03-09T23:28:00.216192","MEAN_MOTION":15.03879314,"ECCENTRICITY":0.00200774,"INCLINATION":97.8673,"RA_OF_ASC_NODE":87.2117,"ARG_OF_PERICENTER":21.0315,"MEAN_ANOMALY":339.1731,"EPHEMERIS_TYPE":0,"CLASSIFICATION_TYPE":"U","NORAD_CAT_ID":33409,"ELEMENT_SET_NO":999,"REV_AT_EPOCH":94783,"BSTAR":0.00032650966,"MEAN_MOTION_DOT":4.452e-5,"MEAN_MOTION_DDOT":0},{"OBJECT_NAME":"STARLINK-2071","OBJECT_ID":"2021-005N","EPOCH":"2026-03-09T22:04:57.520416","MEAN_MOTION":15.06394576,"ECCENTRICITY":0.00015465,"INCLINATION":53.0554,"RA_OF_ASC_NODE":30.5881,"ARG_OF_PERICENTER":94.5913,"MEAN_ANOMALY":265.5253,"EPHEMERIS_TYPE":0,"CLASSIFICATION_TYPE":"U","NORAD_CAT_ID":47361,"ELEMENT_SET_NO":999,"REV_AT_EPOCH":28349,"BSTAR":-5.0651256e-5,"MEAN_MOTION_DOT":-1.036e-5,"MEAN_MOTION_DDOT":0}]
